FLOCK 4Q-36             
1 58274U 23174U   26117.20034738  .00042718  00000+0  65026-3 0  9990
2 58274  97.3846 207.8762 0005162 323.7417  36.3487 15.54388229137906
FLOCK 4Q-28             
1 58280U 23174AA  26116.77292501  .00033615  00000+0  55974-3 0  9999
2 58280  97.3882 206.4079 0003817 335.9222  24.1851 15.51948996137767
FLOCK 4Q-27             
1 58282U 23174AC  26116.77099543  .00033795  00000+0  56489-3 0  9993
2 58282  97.3815 205.8983 0003620 336.0610  24.0473 15.51841432137774
FLOCK 4Q-26             
1 58284U 23174AE  26117.19951022  .00039412  00000+0  60817-3 0  9993
2 58284  97.3872 207.9562 0004715 336.1188  23.9846 15.54031731137905
FLOCK 4Q-31             
1 58285U 23174AF  26116.78647033  .00043898  00000+0  67819-3 0  9994
2 58285  97.3908 207.1826 0004442 335.9252  24.1793 15.53978598137798
FLOCK 4Q-30             
1 58286U 23174AG  26117.21872991  .00042146  00000+0  64608-3 0  9995
2 58286  97.3926 207.8383 0003096 332.8184  27.2907 15.54207447137877
PELICAN-1               
1 58296U 23174AS  26117.21957227  .00204430  00000+0  15842-2 0  9993
2 58296  97.4018 214.4206 0003254 152.5751 207.5684 15.71218952138151
FLOCK 4Q-29             
1 58304U 23174BA  26117.22509133  .00035163  00000+0  57112-3 0  9995
2 58304  97.3925 207.3310 0004007 321.4846  38.6120 15.52635823137845
FLOCK 4Q-22             
1 58306U 23174BC  26117.22156449  .00044700  00000+0  64389-3 0  9996
2 58306  97.3813 207.6635 0003025 317.2244  42.8775 15.55900534137930
FLOCK 4Q-33             
1 58308U 23174BE  26116.98560228  .00034372  00000+0  52154-3 0  9995
2 58308  97.3849 207.2961 0004110 315.7051  44.3874 15.54526558137873
FLOCK 4Q-35             
1 58309U 23174BF  26117.19896365  .00038744  00000+0  60946-3 0  9999
2 58309  97.3872 207.6160 0004094 330.9085  29.1939 15.53506731137886
FLOCK 4Q-7              
1 58318U 23174BQ  26117.20285377  .00037854  00000+0  61993-3 0  9990
2 58318  97.3907 207.0884 0004874 318.6295  41.4588 15.52386233137838
FLOCK 4Q-2              
1 58320U 23174BS  26117.21053552  .00025780  00000+0  50417-3 0  9996
2 58320  97.3830 204.5311 0004510 326.4094  33.6870 15.47410138137714
FLOCK 4Q-9              
1 58322U 23174BU  26117.17303088  .00032249  00000+0  63208-3 0  9995
2 58322  97.3866 204.5412 0004616 326.6523  33.4435 15.47300894137692
FLOCK 4Q-4              
1 58327U 23174BZ  26117.19278844  .00026368  00000+0  53159-3 0  9992
2 58327  97.3821 203.8635 0004835 358.8489   1.2748 15.46519147137678
FLOCK 4Q-13             
1 58328U 23174CA  26117.20251734  .00028159  00000+0  51237-3 0  9999
2 58328  97.3997 206.6171 0005211 344.3142  15.7946 15.49465967137778
