[{"OBJECT_NAME":"FLOCK 4Q-36","OBJECT_ID":"2023-174U","EPOCH":"2026-04-27T04:48:30.013632","MEAN_MOTION":15.54388229,"ECCENTRICITY":0.0005162,"INCLINATION":97.3846,"RA_OF_ASC_NODE":207.8762,"ARG_OF_PERICENTER":323.7417,"MEAN_ANOMALY":36.3487,"EPHEMERIS_TYPE":0,"CLASSIFICATION_TYPE":"U","NORAD_CAT_ID":58274,"ELEMENT_SET_NO":999,"REV_AT_EPOCH":13790,"BSTAR":0.00065026,"MEAN_MOTION_DOT":0.00042718,"MEAN_MOTION_DDOT":0},{"OBJECT_NAME":"FLOCK 4Q-28","OBJECT_ID":"2023-174AA","EPOCH":"2026-04-26T18:33:00.720864","MEAN_MOTION":15.51948996,"ECCENTRICITY":0.0003817,"INCLINATION":97.3882,"RA_OF_ASC_NODE":206.4079,"ARG_OF_PERICENTER":335.9222,"MEAN_ANOMALY":24.1851,"EPHEMERIS_TYPE":0,"CLASSIFICATION_TYPE":"U","NORAD_CAT_ID":58280,"ELEMENT_SET_NO":999,"REV_AT_EPOCH":13776,"BSTAR":0.00055973711,"MEAN_MOTION_DOT":0.00033615,"MEAN_MOTION_DDOT":0},{"OBJECT_NAME":"FLOCK 4Q-27","OBJECT_ID":"2023-174AC","EPOCH":"2026-04-26T18:30:14.005152","MEAN_MOTION":15.51841432,"ECCENTRICITY":0.00036209,"INCLINATION":97.3815,"RA_OF_ASC_NODE":205.8983,"ARG_OF_PERICENTER":336.061,"MEAN_ANOMALY":24.0473,"EPHEMERIS_TYPE":0,"CLASSIFICATION_TYPE":"U","NORAD_CAT_ID":58282,"ELEMENT_SET_NO":999,"REV_AT_EPOCH":13777,"BSTAR":0.00056488846,"MEAN_MOTION_DOT":0.00033795,"MEAN_MOTION_DDOT":0},{"OBJECT_NAME":"FLOCK 4Q-26","OBJECT_ID":"2023-174AE","EPOCH":"2026-04-27T04:47:17.683008","MEAN_MOTION":15.54031731,"ECCENTRICITY":0.0004715,"INCLINATION":97.3872,"RA_OF_ASC_NODE":207.9562,"ARG_OF_PERICENTER":336.1188,"MEAN_ANOMALY":23.9846,"EPHEMERIS_TYPE":0,"CLASSIFICATION_TYPE":"U","NORAD_CAT_ID":58284,"ELEMENT_SET_NO":999,"REV_AT_EPOCH":13790,"BSTAR":0.00060817,"MEAN_MOTION_DOT":0.00039412,"MEAN_MOTION_DDOT":0},{"OBJECT_NAME":"FLOCK 4Q-31","OBJECT_ID":"2023-174AF","EPOCH":"2026-04-26T18:52:31.036512","MEAN_MOTION":15.53978598,"ECCENTRICITY":0.00044425,"INCLINATION":97.3908,"RA_OF_ASC_NODE":207.1826,"ARG_OF_PERICENTER":335.9252,"MEAN_ANOMALY":24.1793,"EPHEMERIS_TYPE":0,"CLASSIFICATION_TYPE":"U","NORAD_CAT_ID":58285,"ELEMENT_SET_NO":999,"REV_AT_EPOCH":13779,"BSTAR":0.00067818797,"MEAN_MOTION_DOT":0.00043898,"MEAN_MOTION_DDOT":0},{"OBJECT_NAME":"FLOCK 4Q-30","OBJECT_ID":"2023-174AG","EPOCH":"2026-04-27T05:14:58.264224","MEAN_MOTION":15.54207447,"ECCENTRICITY":0.0003096,"INCLINATION":97.3926,"RA_OF_ASC_NODE":207.8383,"ARG_OF_PERICENTER":332.8184,"MEAN_ANOMALY":27.2907,"EPHEMERIS_TYPE":0,"CLASSIFICATION_TYPE":"U","NORAD_CAT_ID":58286,"ELEMENT_SET_NO":999,"REV_AT_EPOCH":13787,"BSTAR":0.00064608,"MEAN_MOTION_DOT":0.00042146,"MEAN_MOTION_DDOT":0},{"OBJECT_NAME":"PELICAN-1","OBJECT_ID":"2023-174AS","EPOCH":"2026-04-27T05:16:11.044128","MEAN_MOTION":15.71218952,"ECCENTRICITY":0.0003254,"INCLINATION":97.4018,"RA_OF_ASC_NODE":214.4206,"ARG_OF_PERICENTER":152.5751,"MEAN_ANOMALY":207.5684,"EPHEMERIS_TYPE":0,"CLASSIFICATION_TYPE":"U","NORAD_CAT_ID":58296,"ELEMENT_SET_NO":999,"REV_AT_EPOCH":13815,"BSTAR":0.0015842,"MEAN_MOTION_DOT":0.0020443,"MEAN_MOTION_DDOT":0},{"OBJECT_NAME":"FLOCK 4Q-29","OBJECT_ID":"2023-174BA","EPOCH":"2026-04-27T05:24:07.890912","MEAN_MOTION":15.52635823,"ECCENTRICITY":0.0004007,"INCLINATION":97.3925,"RA_OF_ASC_NODE":207.331,"ARG_OF_PERICENTER":321.4846,"MEAN_ANOMALY":38.612,"EPHEMERIS_TYPE":0,"CLASSIFICATION_TYPE":"U","NORAD_CAT_ID":58304,"ELEMENT_SET_NO":999,"REV_AT_EPOCH":13784,"BSTAR":0.00057112,"MEAN_MOTION_DOT":0.00035163,"MEAN_MOTION_DDOT":0},{"OBJECT_NAME":"FLOCK 4Q-22","OBJECT_ID":"2023-174BC","EPOCH":"2026-04-27T05:19:03.171936","MEAN_MOTION":15.55900534,"ECCENTRICITY":0.0003025,"INCLINATION":97.3813,"RA_OF_ASC_NODE":207.6635,"ARG_OF_PERICENTER":317.2244,"MEAN_ANOMALY":42.8775,"EPHEMERIS_TYPE":0,"CLASSIFICATION_TYPE":"U","NORAD_CAT_ID":58306,"ELEMENT_SET_NO":999,"REV_AT_EPOCH":13793,"BSTAR":0.00064389,"MEAN_MOTION_DOT":0.000447,"MEAN_MOTION_DDOT":0},{"OBJECT_NAME":"FLOCK 4Q-33","OBJECT_ID":"2023-174BE","EPOCH":"2026-04-26T23:39:16.036992","MEAN_MOTION":15.54526558,"ECCENTRICITY":0.000411,"INCLINATION":97.3849,"RA_OF_ASC_NODE":207.2961,"ARG_OF_PERICENTER":315.7051,"MEAN_ANOMALY":44.3874,"EPHEMERIS_TYPE":0,"CLASSIFICATION_TYPE":"U","NORAD_CAT_ID":58308,"ELEMENT_SET_NO":999,"REV_AT_EPOCH":13787,"BSTAR":0.00052154,"MEAN_MOTION_DOT":0.00034372,"MEAN_MOTION_DDOT":0},{"OBJECT_NAME":"FLOCK 4Q-35","OBJECT_ID":"2023-174BF","EPOCH":"2026-04-27T04:46:30.459360","MEAN_MOTION":15.53506731,"ECCENTRICITY":0.0004094,"INCLINATION":97.3872,"RA_OF_ASC_NODE":207.616,"ARG_OF_PERICENTER":330.9085,"MEAN_ANOMALY":29.1939,"EPHEMERIS_TYPE":0,"CLASSIFICATION_TYPE":"U","NORAD_CAT_ID":58309,"ELEMENT_SET_NO":999,"REV_AT_EPOCH":13788,"BSTAR":0.00060946,"MEAN_MOTION_DOT":0.00038744,"MEAN_MOTION_DDOT":0},{"OBJECT_NAME":"FLOCK 4Q-7","OBJECT_ID":"2023-174BQ","EPOCH":"2026-04-27T04:52:06.565728","MEAN_MOTION":15.52386233,"ECCENTRICITY":0.0004874,"INCLINATION":97.3907,"RA_OF_ASC_NODE":207.0884,"ARG_OF_PERICENTER":318.6295,"MEAN_ANOMALY":41.4588,"EPHEMERIS_TYPE":0,"CLASSIFICATION_TYPE":"U","NORAD_CAT_ID":58318,"ELEMENT_SET_NO":999,"REV_AT_EPOCH":13783,"BSTAR":0.00061993,"MEAN_MOTION_DOT":0.00037854,"MEAN_MOTION_DDOT":0},{"OBJECT_NAME":"FLOCK 4Q-2","OBJECT_ID":"2023-174BS","EPOCH":"2026-04-27T05:03:10.268928","MEAN_MOTION":15.47410138,"ECCENTRICITY":0.000451,"INCLINATION":97.383,"RA_OF_ASC_NODE":204.5311,"ARG_OF_PERICENTER":326.4094,"MEAN_ANOMALY":33.687,"EPHEMERIS_TYPE":0,"CLASSIFICATION_TYPE":"U","NORAD_CAT_ID":58320,"ELEMENT_SET_NO":999,"REV_AT_EPOCH":13771,"BSTAR":0.00050417,"MEAN_MOTION_DOT":0.0002578,"MEAN_MOTION_DDOT":0},{"OBJECT_NAME":"FLOCK 4Q-9","OBJECT_ID":"2023-174BU","EPOCH":"2026-04-27T04:09:09.868032","MEAN_MOTION":15.47300894,"ECCENTRICITY":0.0004616,"INCLINATION":97.3866,"RA_OF_ASC_NODE":204.5412,"ARG_OF_PERICENTER":326.6523,"MEAN_ANOMALY":33.4435,"EPHEMERIS_TYPE":0,"CLASSIFICATION_TYPE":"U","NORAD_CAT_ID":58322,"ELEMENT_SET_NO":999,"REV_AT_EPOCH":13769,"BSTAR":0.00063208,"MEAN_MOTION_DOT":0.00032249,"MEAN_MOTION_DDOT":0},{"OBJECT_NAME":"FLOCK 4Q-4","OBJECT_ID":"2023-174BZ","EPOCH":"2026-04-27T04:37:36.921216","MEAN_MOTION":15.46519147,"ECCENTRICITY":0.0004835,"INCLINATION":97.3821,"RA_OF_ASC_NODE":203.8635,"ARG_OF_PERICENTER":358.8489,"MEAN_ANOMALY":1.2748,"EPHEMERIS_TYPE":0,"CLASSIFICATION_TYPE":"U","NORAD_CAT_ID":58327,"ELEMENT_SET_NO":999,"REV_AT_EPOCH":13767,"BSTAR":0.00053159,"MEAN_MOTION_DOT":0.00026368,"MEAN_MOTION_DDOT":0},{"OBJECT_NAME":"FLOCK 4Q-13","OBJECT_ID":"2023-174CA","EPOCH":"2026-04-27T04:51:37.498176","MEAN_MOTION":15.49465967,"ECCENTRICITY":0.0005211,"INCLINATION":97.3997,"RA_OF_ASC_NODE":206.6171,"ARG_OF_PERICENTER":344.3142,"MEAN_ANOMALY":15.7946,"EPHEMERIS_TYPE":0,"CLASSIFICATION_TYPE":"U","NORAD_CAT_ID":58328,"ELEMENT_SET_NO":999,"REV_AT_EPOCH":13777,"BSTAR":0.00051237,"MEAN_MOTION_DOT":0.00028159,"MEAN_MOTION_DDOT":0}]
